start=new Date('2022-06-29T00:00:00.000Z').valueOf();
sats=[{"MEAN_ELEMENT_THEORY":"SGP4","MEAN_MOTION":"15.08816251","EPHEMERIS_TYPE":"0","PERIAPSIS":"538.374","REF_FRAME":"TEME","ECCENTRICITY":"0.00020870","EPOCH":"2022-06-28T22:00:00.999936","CENTER_NAME":"EARTH","CLASSIFICATION_TYPE":"U","MEAN_MOTION_DDOT":"0.0000000000000","FILE":"3504942","OBJECT_ID":"2022-025Z","ARG_OF_PERICENTER":"41.7229","MEAN_MOTION_DOT":"0.00043062","RA_OF_ASC_NODE":"338.4843","SITE":"AFETR","ELEMENT_SET_NO":"999","TIME_SYSTEM":"UTC","COUNTRY_CODE":"US","DECAY_DATE":null,"NORAD_CAT_ID":"51979","BSTAR":"0.00270900000000","PERIOD":"95.439","REV_AT_EPOCH":"130","APOAPSIS":"541.262","INCLINATION":"53.2208","GP_ID":"207061443","TLE_LINE2":"2 51979  53.2208 338.4843 0002087  41.7229 327.6125 15.08816251  1305","SEMIMAJOR_AXIS":"6917.953","LAUNCH_DATE":"2022-03-09","TLE_LINE1":"1 51979U 22025Z   22179.91667824  .00043062  00000-0  27090-2 0  9991","OBJECT_TYPE":"PAYLOAD","MEAN_ANOMALY":"327.6125","RCS_SIZE":"LARGE","OBJECT_NAME":"STARLINK-3656"},{"LAUNCH_DATE":"2022-03-09","OBJECT_TYPE":"PAYLOAD","TLE_LINE1":"1 51980U 22025AA  22179.91667824  .00044199  00000-0  27796-2 0  9998","GP_ID":"207062535","SEMIMAJOR_AXIS":"6917.950","TLE_LINE2":"2 51980  53.2143 338.4834 0001308  62.6429  66.6949 15.08817271  1301","RCS_SIZE":"LARGE","OBJECT_NAME":"STARLINK-3649","MEAN_ANOMALY":"66.6949","INCLINATION":"53.2143","REV_AT_EPOCH":"130","APOAPSIS":"540.720","NORAD_CAT_ID":"51980","BSTAR":"0.00277960000000","COUNTRY_CODE":"US","DECAY_DATE":null,"PERIOD":"95.439","MEAN_MOTION_DOT":"0.00044199","RA_OF_ASC_NODE":"338.4834","SITE":"AFETR","TIME_SYSTEM":"UTC","ELEMENT_SET_NO":"999","FILE":"3504942","OBJECT_ID":"2022-025AA","CENTER_NAME":"EARTH","CLASSIFICATION_TYPE":"U","MEAN_MOTION_DDOT":"0.0000000000000","ARG_OF_PERICENTER":"62.6429","EPOCH":"2022-06-28T22:00:00.999936","ECCENTRICITY":"0.00013080","EPHEMERIS_TYPE":"0","MEAN_MOTION":"15.08817271","MEAN_ELEMENT_THEORY":"SGP4","PERIAPSIS":"538.910","REF_FRAME":"TEME"},{"CENTER_NAME":"EARTH","CLASSIFICATION_TYPE":"U","MEAN_MOTION_DDOT":"0.0000000000000","FILE":"3504942","OBJECT_ID":"2022-025AB","ARG_OF_PERICENTER":"48.5550","MEAN_MOTION_DOT":"0.00044094","RA_OF_ASC_NODE":"338.5224","SITE":"AFETR","ELEMENT_SET_NO":"999","TIME_SYSTEM":"UTC","MEAN_ELEMENT_THEORY":"SGP4","MEAN_MOTION":"15.08817720","EPHEMERIS_TYPE":"0","REF_FRAME":"TEME","PERIAPSIS":"538.593","ECCENTRICITY":"0.00017640","EPOCH":"2022-06-28T22:00:00.999936","INCLINATION":"53.2127","GP_ID":"207060443","TLE_LINE2":"2 51981  53.2127 338.5224 0001764  48.5550   0.7832 15.08817720  1301","SEMIMAJOR_AXIS":"6917.948","LAUNCH_DATE":"2022-03-09","TLE_LINE1":"1 51981U 22025AB  22179.91667824  .00044094  00000-0  27730-2 0  9991","OBJECT_TYPE":"PAYLOAD","MEAN_ANOMALY":"0.7832","RCS_SIZE":"LARGE","OBJECT_NAME":"STARLINK-3635","COUNTRY_CODE":"US","DECAY_DATE":null,"NORAD_CAT_ID":"51981","BSTAR":"0.00277300000000","PERIOD":"95.439","REV_AT_EPOCH":"130","APOAPSIS":"541.034"},{"ARG_OF_PERICENTER":"57.4498","MEAN_MOTION_DDOT":"0.0000000000000","CENTER_NAME":"EARTH","CLASSIFICATION_TYPE":"U","OBJECT_ID":"2022-025AC","FILE":"3504942","ELEMENT_SET_NO":"999","TIME_SYSTEM":"UTC","RA_OF_ASC_NODE":"338.4816","SITE":"AFETR","MEAN_MOTION_DOT":"0.00043832","PERIAPSIS":"538.745","REF_FRAME":"TEME","MEAN_ELEMENT_THEORY":"SGP4","MEAN_MOTION":"15.08821039","EPHEMERIS_TYPE":"0","ECCENTRICITY":"0.00015300","EPOCH":"2022-06-28T22:00:00.999936","INCLINATION":"53.2141","MEAN_ANOMALY":"91.9088","OBJECT_NAME":"STARLINK-3650","RCS_SIZE":"LARGE","TLE_LINE2":"2 51982  53.2141 338.4816 0001530  57.4498  91.9088 15.08821039  1308","SEMIMAJOR_AXIS":"6917.938","GP_ID":"207061692","OBJECT_TYPE":"PAYLOAD","TLE_LINE1":"1 51982U 22025AC  22179.91667824  .00043832  00000-0  27565-2 0  9997","LAUNCH_DATE":"2022-03-09","PERIOD":"95.439","DECAY_DATE":null,"COUNTRY_CODE":"US","BSTAR":"0.00275650000000","NORAD_CAT_ID":"51982","APOAPSIS":"540.862","REV_AT_EPOCH":"130"},{"TIME_SYSTEM":"UTC","ELEMENT_SET_NO":"999","SITE":"AFETR","RA_OF_ASC_NODE":"338.5122","MEAN_MOTION_DOT":"0.00044289","ARG_OF_PERICENTER":"53.9441","OBJECT_ID":"2022-025AD","FILE":"3504942","MEAN_MOTION_DDOT":"0.0000000000000","CENTER_NAME":"EARTH","CLASSIFICATION_TYPE":"U","EPOCH":"2022-06-28T22:00:00.999936","ECCENTRICITY":"0.00015850","REF_FRAME":"TEME","PERIAPSIS":"538.769","EPHEMERIS_TYPE":"0","MEAN_ELEMENT_THEORY":"SGP4","MEAN_MOTION":"15.08800733","OBJECT_NAME":"STARLINK-3655","RCS_SIZE":"LARGE","MEAN_ANOMALY":"15.4195","OBJECT_TYPE":"PAYLOAD","TLE_LINE1":"1 51983U 22025AD  22179.91667824  .00044289  00000-0  27864-2 0  9997","LAUNCH_DATE":"2022-03-09","SEMIMAJOR_AXIS":"6918.000","TLE_LINE2":"2 51983  53.2120 338.5122 0001585  53.9441  15.4195 15.08800733  1304","GP_ID":"207061944","INCLINATION":"53.2120","APOAPSIS":"540.962","REV_AT_EPOCH":"130","PERIOD":"95.440","BSTAR":"0.00278640000000","NORAD_CAT_ID":"51983","DECAY_DATE":null,"COUNTRY_CODE":"US"},{"PERIOD":"95.440","NORAD_CAT_ID":"51984","BSTAR":"0.00265080000000","COUNTRY_CODE":"US","DECAY_DATE":null,"REV_AT_EPOCH":"1839","APOAPSIS":"541.108","INCLINATION":"53.2185","RCS_SIZE":"LARGE","OBJECT_NAME":"STARLINK-3664","MEAN_ANOMALY":"217.8352","LAUNCH_DATE":"2022-03-09","OBJECT_TYPE":"PAYLOAD","TLE_LINE1":"1 51984U 22025AE  22179.91667824  .00042114  00000-0  26508-2 0  9997","GP_ID":"207062188","SEMIMAJOR_AXIS":"6917.980","TLE_LINE2":"2 51984  53.2185 338.4756 0001826  51.4928 217.8352 15.08807450 18392","PERIAPSIS":"538.582","REF_FRAME":"TEME","EPHEMERIS_TYPE":"0","MEAN_MOTION":"15.08807450","MEAN_ELEMENT_THEORY":"SGP4","EPOCH":"2022-06-28T22:00:00.999936","ECCENTRICITY":"0.00018260","ARG_OF_PERICENTER":"51.4928","FILE":"3504942","OBJECT_ID":"2022-025AE","CENTER_NAME":"EARTH","CLASSIFICATION_TYPE":"U","MEAN_MOTION_DDOT":"0.0000000000000","TIME_SYSTEM":"UTC","ELEMENT_SET_NO":"999","MEAN_MOTION_DOT":"0.00042114","RA_OF_ASC_NODE":"338.4756","SITE":"AFETR"},{"TIME_SYSTEM":"UTC","ELEMENT_SET_NO":"999","MEAN_MOTION_DOT":"0.00043359","RA_OF_ASC_NODE":"338.4877","SITE":"AFETR","ARG_OF_PERICENTER":"63.7470","FILE":"3504942","OBJECT_ID":"2022-025AF","CLASSIFICATION_TYPE":"U","CENTER_NAME":"EARTH","MEAN_MOTION_DDOT":"0.0000000000000","EPOCH":"2022-06-28T22:00:00.999936","ECCENTRICITY":"0.00016160","PERIAPSIS":"538.709","REF_FRAME":"TEME","EPHEMERIS_TYPE":"0","MEAN_ELEMENT_THEORY":"SGP4","MEAN_MOTION":"15.08813204","RCS_SIZE":"LARGE","OBJECT_NAME":"STARLINK-3651","MEAN_ANOMALY":"45.5769","LAUNCH_DATE":"2022-03-09","OBJECT_TYPE":"PAYLOAD","TLE_LINE1":"1 51985U 22025AF  22179.91667824  .00043359  00000-0  27277-2 0  9994","GP_ID":"207060944","SEMIMAJOR_AXIS":"6917.962","TLE_LINE2":"2 51985  53.2142 338.4877 0001616  63.7470  45.5769 15.08813204  1300","INCLINATION":"53.2142","REV_AT_EPOCH":"130","APOAPSIS":"540.945","PERIOD":"95.439","NORAD_CAT_ID":"51985","BSTAR":"0.00272770000000","COUNTRY_CODE":"US","DECAY_DATE":null},{"FILE":"3504942","OBJECT_ID":"2022-025AG","CLASSIFICATION_TYPE":"U","CENTER_NAME":"EARTH","MEAN_MOTION_DDOT":"0.0000000000000","ARG_OF_PERICENTER":"55.2481","MEAN_MOTION_DOT":"0.00042242","SITE":"AFETR","RA_OF_ASC_NODE":"338.4785","TIME_SYSTEM":"UTC","ELEMENT_SET_NO":"999","EPHEMERIS_TYPE":"0","MEAN_MOTION":"15.08800124","MEAN_ELEMENT_THEORY":"SGP4","REF_FRAME":"TEME","PERIAPSIS":"538.952","EPOCH":"2022-06-28T22:00:00.999936","ECCENTRICITY":"0.00013230","INCLINATION":"53.2192","LAUNCH_DATE":"2022-03-09","OBJECT_TYPE":"PAYLOAD","TLE_LINE1":"1 51986U 22025AG  22179.91667824  .00042242  00000-0  26593-2 0  9995","GP_ID":"207061192","TLE_LINE2":"2 51986  53.2192 338.4785 0001323  55.2481 254.1115 15.08800124  1307","SEMIMAJOR_AXIS":"6918.002","RCS_SIZE":"LARGE","OBJECT_NAME":"STARLINK-3645","MEAN_ANOMALY":"254.1115","NORAD_CAT_ID":"51986","BSTAR":"0.00265930000000","COUNTRY_CODE":"US","DECAY_DATE":null,"PERIOD":"95.440","REV_AT_EPOCH":"130","APOAPSIS":"540.783"},{"MEAN_MOTION":"15.08813287","MEAN_ELEMENT_THEORY":"SGP4","EPHEMERIS_TYPE":"0","PERIAPSIS":"538.759","REF_FRAME":"TEME","ECCENTRICITY":"0.00015440","EPOCH":"2022-06-28T22:00:00.999936","CENTER_NAME":"EARTH","CLASSIFICATION_TYPE":"U","MEAN_MOTION_DDOT":"0.0000000000000","FILE":"3504942","OBJECT_ID":"2022-025AH","ARG_OF_PERICENTER":"50.4831","MEAN_MOTION_DOT":"0.00043006","RA_OF_ASC_NODE":"338.4768","SITE":"AFETR","ELEMENT_SET_NO":"999","TIME_SYSTEM":"UTC","COUNTRY_CODE":"US","DECAY_DATE":null,"NORAD_CAT_ID":"51987","BSTAR":"0.00270580000000","PERIOD":"95.439","REV_AT_EPOCH":"130","APOAPSIS":"540.895","INCLINATION":"53.2184","GP_ID":"207061444","TLE_LINE2":"2 51987  53.2184 338.4768 0001544  50.4831 178.8625 15.08813287  1303","SEMIMAJOR_AXIS":"6917.962","LAUNCH_DATE":"2022-03-09","OBJECT_TYPE":"PAYLOAD","TLE_LINE1":"1 51987U 22025AH  22179.91667824  .00043006  00000-0  27058-2 0  9992","MEAN_ANOMALY":"178.8625","RCS_SIZE":"LARGE","OBJECT_NAME":"STARLINK-3644"},{"REF_FRAME":"TEME","PERIAPSIS":"538.775","EPHEMERIS_TYPE":"0","MEAN_ELEMENT_THEORY":"SGP4","MEAN_MOTION":"15.08816481","EPOCH":"2022-06-28T22:00:00.999936","ECCENTRICITY":"0.00015070","ARG_OF_PERICENTER":"54.7325","OBJECT_ID":"2022-025AJ","FILE":"3504810","MEAN_MOTION_DDOT":"0.0000000000000","CLASSIFICATION_TYPE":"U","CENTER_NAME":"EARTH","TIME_SYSTEM":"UTC","ELEMENT_SET_NO":"999","RA_OF_ASC_NODE":"338.4772","SITE":"AFETR","MEAN_MOTION_DOT":"0.00042223","PERIOD":"95.439","BSTAR":"0.00265690000000","NORAD_CAT_ID":"51988","DECAY_DATE":null,"COUNTRY_CODE":"US","APOAPSIS":"540.860","REV_AT_EPOCH":"1840","INCLINATION":"53.2188","OBJECT_NAME":"STARLINK-3640","RCS_SIZE":"LARGE","MEAN_ANOMALY":"274.6153","OBJECT_TYPE":"PAYLOAD","TLE_LINE1":"1 51988U 22025AJ  22179.91667824  .00042223  00000-0  26569-2 0  9999","LAUNCH_DATE":"2022-03-09","SEMIMAJOR_AXIS":"6917.952","TLE_LINE2":"2 51988  53.2188 338.4772 0001507  54.7325 274.6153 15.08816481 18406","GP_ID":"207034986"}];
